start=new Date('2023-07-03T00:00:00.000Z').valueOf();
sats=[{"ARG_OF_PERICENTER":"88.5593","MEAN_MOTION_DOT":"-0.00000379","BSTAR":"-0.00000656920000","FILE":"3947427","ECCENTRICITY":"0.00010010","CENTER_NAME":"EARTH","EPOCH":"2023-07-02T01:17:52.575072","CLASSIFICATION_TYPE":"U","PERIOD":"95.592","SEMIMAJOR_AXIS":"6925.358","MEAN_MOTION":"15.06396947","REF_FRAME":"TEME","OBJECT_TYPE":"PAYLOAD","NORAD_CAT_ID":"48588","REV_AT_EPOCH":"11769","MEAN_MOTION_DDOT":"0.0000000000000","MEAN_ANOMALY":"271.5510","RCS_SIZE":"LARGE","TLE_LINE2":"2 48588  53.0530 218.3465 0001001  88.5593 271.5510 15.06396947117695","MEAN_ELEMENT_THEORY":"SGP4","EPHEMERIS_TYPE":"0","OBJECT_ID":"2021-041AM","RA_OF_ASC_NODE":"218.3465","SITE":"AFETR","OBJECT_NAME":"STARLINK-2244","LAUNCH_DATE":"2021-05-15","TIME_SYSTEM":"UTC","GP_ID":"234667001","ELEMENT_SET_NO":"999","TLE_LINE1":"1 48588U 21041AM  23183.05408073 -.00000379  00000-0 -65692-5 0  9999","APOAPSIS":"547.916","COUNTRY_CODE":"US","INCLINATION":"53.0530","DECAY_DATE":null,"PERIAPSIS":"546.530"},{"TIME_SYSTEM":"UTC","GP_ID":"234673346","ELEMENT_SET_NO":"999","TLE_LINE1":"1 48589U 21041AN  23183.38213209 -.00001263  00000-0 -65928-4 0  9995","COUNTRY_CODE":"US","INCLINATION":"53.0526","APOAPSIS":"547.900","DECAY_DATE":null,"PERIAPSIS":"546.573","REV_AT_EPOCH":"11774","MEAN_MOTION_DDOT":"0.0000000000000","RCS_SIZE":"LARGE","MEAN_ANOMALY":"264.1384","TLE_LINE2":"2 48589  53.0526 216.8791 0000958  95.9714 264.1384 15.06392577117741","EPHEMERIS_TYPE":"0","MEAN_ELEMENT_THEORY":"SGP4","RA_OF_ASC_NODE":"216.8791","OBJECT_ID":"2021-041AN","SITE":"AFETR","OBJECT_NAME":"STARLINK-2245","LAUNCH_DATE":"2021-05-15","EPOCH":"2023-07-02T09:10:16.212576","CLASSIFICATION_TYPE":"U","PERIOD":"95.593","SEMIMAJOR_AXIS":"6925.371","MEAN_MOTION":"15.06392577","REF_FRAME":"TEME","OBJECT_TYPE":"PAYLOAD","NORAD_CAT_ID":"48589","ARG_OF_PERICENTER":"95.9714","MEAN_MOTION_DOT":"-0.00001263","BSTAR":"-0.00006592800000","FILE":"3947691","ECCENTRICITY":"0.00009580","CENTER_NAME":"EARTH"},{"PERIAPSIS":"546.680","DECAY_DATE":null,"COUNTRY_CODE":"US","TLE_LINE1":"1 48591U 21041AQ  23183.36643535 -.00002165  00000-0 -12648-3 0  9997","APOAPSIS":"547.741","INCLINATION":"53.0525","GP_ID":"234673350","ELEMENT_SET_NO":"999","TIME_SYSTEM":"UTC","LAUNCH_DATE":"2021-05-15","OBJECT_NAME":"STARLINK-2248","SITE":"AFETR","RA_OF_ASC_NODE":"216.9497","OBJECT_ID":"2021-041AQ","MEAN_ELEMENT_THEORY":"SGP4","EPHEMERIS_TYPE":"0","TLE_LINE2":"2 48591  53.0525 216.9497 0000766  70.7735 289.3337 15.06401029117692","RCS_SIZE":"LARGE","MEAN_ANOMALY":"289.3337","REV_AT_EPOCH":"11769","MEAN_MOTION_DDOT":"0.0000000000000","OBJECT_TYPE":"PAYLOAD","NORAD_CAT_ID":"48591","REF_FRAME":"TEME","SEMIMAJOR_AXIS":"6925.345","MEAN_MOTION":"15.06401029","PERIOD":"95.592","EPOCH":"2023-07-02T08:47:40.014240","CLASSIFICATION_TYPE":"U","CENTER_NAME":"EARTH","ECCENTRICITY":"0.00007660","FILE":"3947691","BSTAR":"-0.00012648000000","MEAN_MOTION_DOT":"-0.00002165","ARG_OF_PERICENTER":"70.7735"},{"TLE_LINE1":"1 48592U 21041AR  23183.11119930  .00002037  00000-0  15565-3 0  9995","INCLINATION":"53.0546","COUNTRY_CODE":"US","APOAPSIS":"548.062","DECAY_DATE":null,"PERIAPSIS":"546.484","TIME_SYSTEM":"UTC","ELEMENT_SET_NO":"999","GP_ID":"234666373","OBJECT_NAME":"STARLINK-2249","SITE":"AFETR","LAUNCH_DATE":"2021-05-15","OBJECT_ID":"2021-041AR","RA_OF_ASC_NODE":"228.1262","TLE_LINE2":"2 48592  53.0546 228.1262 0001139  90.0361 270.0758 15.06380646117411","EPHEMERIS_TYPE":"0","MEAN_ELEMENT_THEORY":"SGP4","REV_AT_EPOCH":"11741","MEAN_MOTION_DDOT":"0.0000000000000","RCS_SIZE":"MEDIUM","MEAN_ANOMALY":"270.0758","OBJECT_TYPE":"PAYLOAD","NORAD_CAT_ID":"48592","SEMIMAJOR_AXIS":"6925.408","MEAN_MOTION":"15.06380646","REF_FRAME":"TEME","PERIOD":"95.593","CLASSIFICATION_TYPE":"U","EPOCH":"2023-07-02T02:40:07.619520","CENTER_NAME":"EARTH","ECCENTRICITY":"0.00011390","FILE":"3947409","BSTAR":"0.00015565000000","ARG_OF_PERICENTER":"90.0361","MEAN_MOTION_DOT":"0.00002037"},{"MEAN_MOTION":"15.06402371","SEMIMAJOR_AXIS":"6925.341","REF_FRAME":"TEME","NORAD_CAT_ID":"48593","OBJECT_TYPE":"PAYLOAD","CLASSIFICATION_TYPE":"U","EPOCH":"2023-07-01T20:24:37.511424","PERIOD":"95.592","FILE":"3947409","ECCENTRICITY":"0.00010570","CENTER_NAME":"EARTH","ARG_OF_PERICENTER":"89.2513","MEAN_MOTION_DOT":"-0.00002223","BSTAR":"-0.00013040000000","TLE_LINE1":"1 48593U 21041AS  23182.85043416 -.00002223  00000-0 -13040-3 0  9996","COUNTRY_CODE":"US","INCLINATION":"53.0527","APOAPSIS":"547.938","PERIAPSIS":"546.474","DECAY_DATE":null,"TIME_SYSTEM":"UTC","ELEMENT_SET_NO":"999","GP_ID":"234666374","RA_OF_ASC_NODE":"229.2675","OBJECT_ID":"2021-041AS","SITE":"AFETR","OBJECT_NAME":"STARLINK-2250","LAUNCH_DATE":"2021-05-15","MEAN_MOTION_DDOT":"0.0000000000000","REV_AT_EPOCH":"11737","MEAN_ANOMALY":"270.8597","RCS_SIZE":"LARGE","TLE_LINE2":"2 48593  53.0527 229.2675 0001057  89.2513 270.8597 15.06402371117373","EPHEMERIS_TYPE":"0","MEAN_ELEMENT_THEORY":"SGP4"},{"SEMIMAJOR_AXIS":"6925.347","MEAN_MOTION":"15.06400553","REF_FRAME":"TEME","OBJECT_TYPE":"PAYLOAD","NORAD_CAT_ID":"48594","EPOCH":"2023-07-01T17:54:42.252768","CLASSIFICATION_TYPE":"U","PERIOD":"95.592","ECCENTRICITY":"0.00010940","FILE":"3947142","CENTER_NAME":"EARTH","ARG_OF_PERICENTER":"83.2932","MEAN_MOTION_DOT":"0.00000725","BSTAR":"0.00006755500000","TLE_LINE1":"1 48594U 21041AT  23182.74632237  .00000725  00000-0  67555-4 0  9994","COUNTRY_CODE":"US","APOAPSIS":"547.969","INCLINATION":"53.0530","PERIAPSIS":"546.454","DECAY_DATE":null,"TIME_SYSTEM":"UTC","ELEMENT_SET_NO":"999","GP_ID":"234659645","RA_OF_ASC_NODE":"199.8169","OBJECT_ID":"2021-041AT","SITE":"AFETR","OBJECT_NAME":"STARLINK-2251","LAUNCH_DATE":"2021-05-15","REV_AT_EPOCH":"11793","MEAN_MOTION_DDOT":"0.0000000000000","RCS_SIZE":"LARGE","MEAN_ANOMALY":"276.8181","TLE_LINE2":"2 48594  53.0530 199.8169 0001094  83.2932 276.8181 15.06400553117935","MEAN_ELEMENT_THEORY":"SGP4","EPHEMERIS_TYPE":"0"},{"PERIOD":"95.593","EPOCH":"2023-07-01T19:58:05.546496","CLASSIFICATION_TYPE":"U","OBJECT_TYPE":"PAYLOAD","NORAD_CAT_ID":"48595","SEMIMAJOR_AXIS":"6925.373","MEAN_MOTION":"15.06392185","REF_FRAME":"TEME","BSTAR":"-0.00007137700000","ARG_OF_PERICENTER":"89.3363","MEAN_MOTION_DOT":"-0.00001344","CENTER_NAME":"EARTH","ECCENTRICITY":"0.00012460","FILE":"3947410","TIME_SYSTEM":"UTC","ELEMENT_SET_NO":"999","GP_ID":"234666391","TLE_LINE1":"1 48595U 21041AU  23182.83200864 -.00001344  00000-0 -71377-4 0  9999","APOAPSIS":"548.100","COUNTRY_CODE":"US","INCLINATION":"53.0535","DECAY_DATE":null,"PERIAPSIS":"546.375","TLE_LINE2":"2 48595  53.0535 229.3465 0001246  89.3363 270.7769 15.06392185118345","EPHEMERIS_TYPE":"0","MEAN_ELEMENT_THEORY":"SGP4","REV_AT_EPOCH":"11834","MEAN_MOTION_DDOT":"0.0000000000000","RCS_SIZE":"LARGE","MEAN_ANOMALY":"270.7769","OBJECT_NAME":"STARLINK-2252","SITE":"AFETR","LAUNCH_DATE":"2021-05-15","RA_OF_ASC_NODE":"229.3465","OBJECT_ID":"2021-041AU"},{"RCS_SIZE":"LARGE","MEAN_ANOMALY":"280.8229","REV_AT_EPOCH":"11761","MEAN_MOTION_DDOT":"0.0000000000000","MEAN_ELEMENT_THEORY":"SGP4","EPHEMERIS_TYPE":"0","TLE_LINE2":"2 48596  53.0542 226.8672 0000961  79.2868 280.8229 15.06392619117611","RA_OF_ASC_NODE":"226.8672","OBJECT_ID":"2021-041AV","LAUNCH_DATE":"2021-05-15","OBJECT_NAME":"STARLINK-2253","SITE":"AFETR","GP_ID":"234673380","ELEMENT_SET_NO":"999","TIME_SYSTEM":"UTC","DECAY_DATE":null,"PERIAPSIS":"546.571","INCLINATION":"53.0542","TLE_LINE1":"1 48596U 21041AV  23183.38490462  .00000105  00000-0  25902-4 0  9991","COUNTRY_CODE":"US","APOAPSIS":"547.902","MEAN_MOTION_DOT":"0.00000105","ARG_OF_PERICENTER":"79.2868","BSTAR":"0.00002590200000","ECCENTRICITY":"0.00009610","FILE":"3947692","CENTER_NAME":"EARTH","EPOCH":"2023-07-02T09:14:15.759168","CLASSIFICATION_TYPE":"U","PERIOD":"95.593","REF_FRAME":"TEME","SEMIMAJOR_AXIS":"6925.371","MEAN_MOTION":"15.06392619","OBJECT_TYPE":"PAYLOAD","NORAD_CAT_ID":"48596"},{"BSTAR":"-0.00017441000000","MEAN_MOTION_DOT":"-0.00002878","ARG_OF_PERICENTER":"91.0974","CENTER_NAME":"EARTH","FILE":"3947692","ECCENTRICITY":"0.00010230","PERIOD":"95.592","CLASSIFICATION_TYPE":"U","EPOCH":"2023-07-02T09:24:51.777216","NORAD_CAT_ID":"48597","OBJECT_TYPE":"PAYLOAD","REF_FRAME":"TEME","MEAN_MOTION":"15.06395821","SEMIMAJOR_AXIS":"6925.361","MEAN_ELEMENT_THEORY":"SGP4","EPHEMERIS_TYPE":"0","TLE_LINE2":"2 48597  53.0526 226.8359 0001023  91.0974 269.0132 15.06395821118426","MEAN_ANOMALY":"269.0132","RCS_SIZE":"LARGE","MEAN_MOTION_DDOT":"0.0000000000000","REV_AT_EPOCH":"11842","LAUNCH_DATE":"2021-05-15","OBJECT_NAME":"STARLINK-2255","SITE":"AFETR","RA_OF_ASC_NODE":"226.8359","OBJECT_ID":"2021-041AW","ELEMENT_SET_NO":"999","GP_ID":"234673132","TIME_SYSTEM":"UTC","PERIAPSIS":"546.518","DECAY_DATE":null,"TLE_LINE1":"1 48597U 21041AW  23183.39226594 -.00002878  00000-0 -17441-3 0  9995","COUNTRY_CODE":"US","APOAPSIS":"547.935","INCLINATION":"53.0526"},{"MEAN_MOTION_DDOT":"0.0000000000000","REV_AT_EPOCH":"11761","RCS_SIZE":"LARGE","MEAN_ANOMALY":"267.4546","TLE_LINE2":"2 48598  53.0530 226.8163 0000977  92.6555 267.4546 15.06394203117618","MEAN_ELEMENT_THEORY":"SGP4","EPHEMERIS_TYPE":"0","OBJECT_ID":"2021-041AX","RA_OF_ASC_NODE":"226.8163","SITE":"AFETR","OBJECT_NAME":"STARLINK-2256","LAUNCH_DATE":"2021-05-15","TIME_SYSTEM":"UTC","ELEMENT_SET_NO":"999","GP_ID":"234673133","COUNTRY_CODE":"US","TLE_LINE1":"1 48598U 21041AX  23183.39595481 -.00000244  00000-0  25032-5 0  9991","APOAPSIS":"547.908","INCLINATION":"53.0530","DECAY_DATE":null,"PERIAPSIS":"546.555","ARG_OF_PERICENTER":"92.6555","MEAN_MOTION_DOT":"-0.00000244","BSTAR":"0.00000250320000","FILE":"3947692","ECCENTRICITY":"0.00009770","CENTER_NAME":"EARTH","CLASSIFICATION_TYPE":"U","EPOCH":"2023-07-02T09:30:10.495584","PERIOD":"95.593","MEAN_MOTION":"15.06394203","SEMIMAJOR_AXIS":"6925.366","REF_FRAME":"TEME","NORAD_CAT_ID":"48598","OBJECT_TYPE":"PAYLOAD"}];
